[Satellite]
VERSION=1.1
NAME=CZ-6A DEB
NICKNAME=CZ-6A DEB
TLE1=1 54458U 22151GJ  22342.46607072  .00002939  00000+0  12669-2 0  9990
TLE2=2 54458  99.1209 349.3862 0171479 270.7385  87.4145 14.17790873  3496
STATUS=0
